STARLINK-36909          
1 67946U 26037Q   26072.60897657  .00257757  00000+0  11862-2 0  9997
2 67946  42.9981 174.4082 0001443 299.2900  60.7828 15.82094826  3870
STARLINK-36920          
1 67947U 26037R   26072.60822788  .00229380  00000+0  10595-2 0  9994
2 67947  42.9983 174.4014 0001566 300.2219  59.8498 15.82091955  3872
STARLINK-36873          
1 67948U 26037S   26072.60747384  .00479287  00000+0  21380-2 0  9990
2 67948  42.9982 174.3954 0002499 281.4341  78.6250 15.82186091  3877
STARLINK-36863          
1 67949U 26037T   26072.60672997  .00225151  00000+0  10413-2 0  9992
2 67949  42.9984 174.3892 0001190 304.0555  56.0204 15.82075308  3874
STARLINK-36887          
1 67950U 26037U   26072.60597586  .00418495  00000+0  18819-2 0  9997
2 67950  42.9982 174.3829 0001750 299.1381  60.9315 15.82169635  3871
STARLINK-36897          
1 67951U 26037V   26072.60522626  .00311335  00000+0  14205-2 0  9991
2 67951  42.9983 174.3775 0002151 282.9488  77.1144 15.82136578  3877
STARLINK-36381          
1 67952U 26037W   26072.60373246  .00177200  00000+0  82484-3 0  9990
2 67952  42.9987 174.3646 0001843 312.4287  47.6429 15.82070264  3879
STARLINK-36824          
1 67953U 26037X   26072.60447783  .00422257  00000+0  18984-2 0  9997
2 67953  42.9981 174.3704 0001803 269.8188  90.2477 15.82165182  3871
STARLINK-36869          
1 67954U 26037Y   26072.60297497  .00205896  00000+0  95359-3 0  9993
2 67954  42.9983 174.3574 0001977 280.2701  79.7948 15.82097766  3876
STARLINK-36872          
1 67955U 26037Z   26072.60148467  .00172971  00000+0  80616-3 0  9993
2 67955  42.9983 174.3451 0002000 307.3450  52.7239 15.82055489  3871
STARLINK-36918          
1 67956U 26037AA  26072.60073177  .00318737  00000+0  14532-2 0  9994
2 67956  42.9983 174.3387 0001341 279.0512  81.0208 15.82133464  3872
STARLINK-36829          
1 67957U 26037AB  26072.60223157  .00266127  00000+0  12224-2 0  9991
2 67957  42.9986 174.3517 0001383 284.4201  75.6517 15.82112930  3879
STARLINK-36799          
1 67958U 26037AC  26072.59998367  .00253506  00000+0  11671-2 0  9994
2 67958  42.9981 174.3329 0002012 300.6593  59.4080 15.82096509  3879
STARLINK-36834          
1 67959U 26037AD  26072.59848803  .00222609  00000+0  10300-2 0  9992
2 67959  42.9985 174.3206 0001810 301.5260  58.5435 15.82072935  3875
STARLINK-36841          
1 67960U 26037AE  26072.59923376  .00259749  00000+0  11945-2 0  9994
2 67960  42.9985 174.3271 0001795 265.4530  94.6136 15.82104082  3877
STARLINK-36912          
1 67961U 26038A   26072.58334491 -.00129887  00000+0 -87961-3 0  9992
2 67961  97.2829  83.0791 0000825 132.5342  83.2849 15.75286100  3823
