[{"OBJECT_NAME":"STARLINK-36909","OBJECT_ID":"2026-037Q","EPOCH":"2026-03-13T14:36:55.575648","MEAN_MOTION":15.82094826,"ECCENTRICITY":0.00014435,"INCLINATION":42.9981,"RA_OF_ASC_NODE":174.4082,"ARG_OF_PERICENTER":299.29,"MEAN_ANOMALY":60.7828,"EPHEMERIS_TYPE":0,"CLASSIFICATION_TYPE":"U","NORAD_CAT_ID":67946,"ELEMENT_SET_NO":999,"REV_AT_EPOCH":387,"BSTAR":0.0011861663,"MEAN_MOTION_DOT":0.00257757,"MEAN_MOTION_DDOT":0},{"OBJECT_NAME":"STARLINK-36920","OBJECT_ID":"2026-037R","EPOCH":"2026-03-13T14:35:50.888832","MEAN_MOTION":15.82091955,"ECCENTRICITY":0.00015668,"INCLINATION":42.9983,"RA_OF_ASC_NODE":174.4014,"ARG_OF_PERICENTER":300.2219,"MEAN_ANOMALY":59.8498,"EPHEMERIS_TYPE":0,"CLASSIFICATION_TYPE":"U","NORAD_CAT_ID":67947,"ELEMENT_SET_NO":999,"REV_AT_EPOCH":387,"BSTAR":0.0010594888,"MEAN_MOTION_DOT":0.0022938,"MEAN_MOTION_DDOT":0},{"OBJECT_NAME":"STARLINK-36873","OBJECT_ID":"2026-037S","EPOCH":"2026-03-13T14:34:45.739776","MEAN_MOTION":15.82186091,"ECCENTRICITY":0.00024997,"INCLINATION":42.9982,"RA_OF_ASC_NODE":174.3954,"ARG_OF_PERICENTER":281.4341,"MEAN_ANOMALY":78.625,"EPHEMERIS_TYPE":0,"CLASSIFICATION_TYPE":"U","NORAD_CAT_ID":67948,"ELEMENT_SET_NO":999,"REV_AT_EPOCH":387,"BSTAR":0.0021380444,"MEAN_MOTION_DOT":0.00479287,"MEAN_MOTION_DDOT":0},{"OBJECT_NAME":"STARLINK-36863","OBJECT_ID":"2026-037T","EPOCH":"2026-03-13T14:33:41.469408","MEAN_MOTION":15.82075308,"ECCENTRICITY":0.00011908,"INCLINATION":42.9984,"RA_OF_ASC_NODE":174.3892,"ARG_OF_PERICENTER":304.0555,"MEAN_ANOMALY":56.0204,"EPHEMERIS_TYPE":0,"CLASSIFICATION_TYPE":"U","NORAD_CAT_ID":67949,"ELEMENT_SET_NO":999,"REV_AT_EPOCH":387,"BSTAR":0.0010413249,"MEAN_MOTION_DOT":0.00225151,"MEAN_MOTION_DDOT":0},{"OBJECT_NAME":"STARLINK-36887","OBJECT_ID":"2026-037U","EPOCH":"2026-03-13T14:32:36.314304","MEAN_MOTION":15.82169635,"ECCENTRICITY":0.00017501,"INCLINATION":42.9982,"RA_OF_ASC_NODE":174.3829,"ARG_OF_PERICENTER":299.1381,"MEAN_ANOMALY":60.9315,"EPHEMERIS_TYPE":0,"CLASSIFICATION_TYPE":"U","NORAD_CAT_ID":67950,"ELEMENT_SET_NO":999,"REV_AT_EPOCH":387,"BSTAR":0.0018819318,"MEAN_MOTION_DOT":0.00418495,"MEAN_MOTION_DDOT":0},{"OBJECT_NAME":"STARLINK-36897","OBJECT_ID":"2026-037V","EPOCH":"2026-03-13T14:31:31.548864","MEAN_MOTION":15.82136578,"ECCENTRICITY":0.00021515,"INCLINATION":42.9983,"RA_OF_ASC_NODE":174.3775,"ARG_OF_PERICENTER":282.9488,"MEAN_ANOMALY":77.1144,"EPHEMERIS_TYPE":0,"CLASSIFICATION_TYPE":"U","NORAD_CAT_ID":67951,"ELEMENT_SET_NO":999,"REV_AT_EPOCH":387,"BSTAR":0.0014204989,"MEAN_MOTION_DOT":0.00311335,"MEAN_MOTION_DDOT":0},{"OBJECT_NAME":"STARLINK-36381","OBJECT_ID":"2026-037W","EPOCH":"2026-03-13T14:29:22.484544","MEAN_MOTION":15.82070264,"ECCENTRICITY":0.0001843,"INCLINATION":42.9987,"RA_OF_ASC_NODE":174.3646,"ARG_OF_PERICENTER":312.4287,"MEAN_ANOMALY":47.6429,"EPHEMERIS_TYPE":0,"CLASSIFICATION_TYPE":"U","NORAD_CAT_ID":67952,"ELEMENT_SET_NO":999,"REV_AT_EPOCH":387,"BSTAR":0.00082484226,"MEAN_MOTION_DOT":0.001772,"MEAN_MOTION_DDOT":0},{"OBJECT_NAME":"STARLINK-36824","OBJECT_ID":"2026-037X","EPOCH":"2026-03-13T14:30:26.884512","MEAN_MOTION":15.82165182,"ECCENTRICITY":0.00018038,"INCLINATION":42.9981,"RA_OF_ASC_NODE":174.3704,"ARG_OF_PERICENTER":269.8188,"MEAN_ANOMALY":90.2477,"EPHEMERIS_TYPE":0,"CLASSIFICATION_TYPE":"U","NORAD_CAT_ID":67953,"ELEMENT_SET_NO":999,"REV_AT_EPOCH":387,"BSTAR":0.0018983855,"MEAN_MOTION_DOT":0.00422257,"MEAN_MOTION_DDOT":0},{"OBJECT_NAME":"STARLINK-36869","OBJECT_ID":"2026-037Y","EPOCH":"2026-03-13T14:28:17.037408","MEAN_MOTION":15.82097766,"ECCENTRICITY":0.00019772,"INCLINATION":42.9983,"RA_OF_ASC_NODE":174.3574,"ARG_OF_PERICENTER":280.2701,"MEAN_ANOMALY":79.7948,"EPHEMERIS_TYPE":0,"CLASSIFICATION_TYPE":"U","NORAD_CAT_ID":67954,"ELEMENT_SET_NO":999,"REV_AT_EPOCH":387,"BSTAR":0.00095359391,"MEAN_MOTION_DOT":0.00205896,"MEAN_MOTION_DDOT":0},{"OBJECT_NAME":"STARLINK-36872","OBJECT_ID":"2026-037Z","EPOCH":"2026-03-13T14:26:08.275488","MEAN_MOTION":15.82055489,"ECCENTRICITY":0.00020005,"INCLINATION":42.9983,"RA_OF_ASC_NODE":174.3451,"ARG_OF_PERICENTER":307.345,"MEAN_ANOMALY":52.7239,"EPHEMERIS_TYPE":0,"CLASSIFICATION_TYPE":"U","NORAD_CAT_ID":67955,"ELEMENT_SET_NO":999,"REV_AT_EPOCH":387,"BSTAR":0.00080615916,"MEAN_MOTION_DOT":0.00172971,"MEAN_MOTION_DDOT":0},{"OBJECT_NAME":"STARLINK-36918","OBJECT_ID":"2026-037AA","EPOCH":"2026-03-13T14:25:03.224928","MEAN_MOTION":15.82133464,"ECCENTRICITY":0.0001341,"INCLINATION":42.9983,"RA_OF_ASC_NODE":174.3387,"ARG_OF_PERICENTER":279.0512,"MEAN_ANOMALY":81.0208,"EPHEMERIS_TYPE":0,"CLASSIFICATION_TYPE":"U","NORAD_CAT_ID":67956,"ELEMENT_SET_NO":999,"REV_AT_EPOCH":387,"BSTAR":0.001453181,"MEAN_MOTION_DOT":0.00318737,"MEAN_MOTION_DDOT":0},{"OBJECT_NAME":"STARLINK-36829","OBJECT_ID":"2026-037AB","EPOCH":"2026-03-13T14:27:12.807648","MEAN_MOTION":15.8211293,"ECCENTRICITY":0.00013833,"INCLINATION":42.9986,"RA_OF_ASC_NODE":174.3517,"ARG_OF_PERICENTER":284.4201,"MEAN_ANOMALY":75.6517,"EPHEMERIS_TYPE":0,"CLASSIFICATION_TYPE":"U","NORAD_CAT_ID":67957,"ELEMENT_SET_NO":999,"REV_AT_EPOCH":387,"BSTAR":0.0012223795,"MEAN_MOTION_DOT":0.00266127,"MEAN_MOTION_DDOT":0},{"OBJECT_NAME":"STARLINK-36799","OBJECT_ID":"2026-037AC","EPOCH":"2026-03-13T14:23:58.589088","MEAN_MOTION":15.82096509,"ECCENTRICITY":0.00020129,"INCLINATION":42.9981,"RA_OF_ASC_NODE":174.3329,"ARG_OF_PERICENTER":300.6593,"MEAN_ANOMALY":59.408,"EPHEMERIS_TYPE":0,"CLASSIFICATION_TYPE":"U","NORAD_CAT_ID":67958,"ELEMENT_SET_NO":999,"REV_AT_EPOCH":387,"BSTAR":0.0011671126,"MEAN_MOTION_DOT":0.00253506,"MEAN_MOTION_DDOT":0},{"OBJECT_NAME":"STARLINK-36834","OBJECT_ID":"2026-037AD","EPOCH":"2026-03-13T14:21:49.365792","MEAN_MOTION":15.82072935,"ECCENTRICITY":0.00018102,"INCLINATION":42.9985,"RA_OF_ASC_NODE":174.3206,"ARG_OF_PERICENTER":301.526,"MEAN_ANOMALY":58.5435,"EPHEMERIS_TYPE":0,"CLASSIFICATION_TYPE":"U","NORAD_CAT_ID":67959,"ELEMENT_SET_NO":999,"REV_AT_EPOCH":387,"BSTAR":0.0010300013,"MEAN_MOTION_DOT":0.00222609,"MEAN_MOTION_DDOT":0},{"OBJECT_NAME":"STARLINK-36841","OBJECT_ID":"2026-037AE","EPOCH":"2026-03-13T14:22:53.796864","MEAN_MOTION":15.82104082,"ECCENTRICITY":0.00017958,"INCLINATION":42.9985,"RA_OF_ASC_NODE":174.3271,"ARG_OF_PERICENTER":265.453,"MEAN_ANOMALY":94.6136,"EPHEMERIS_TYPE":0,"CLASSIFICATION_TYPE":"U","NORAD_CAT_ID":67960,"ELEMENT_SET_NO":999,"REV_AT_EPOCH":387,"BSTAR":0.0011945127,"MEAN_MOTION_DOT":0.00259749,"MEAN_MOTION_DDOT":0},{"OBJECT_NAME":"STARLINK-36912","OBJECT_ID":"2026-038A","EPOCH":"2026-03-13T14:00:01.000224","MEAN_MOTION":15.752861,"ECCENTRICITY":8.258e-5,"INCLINATION":97.2829,"RA_OF_ASC_NODE":83.0791,"ARG_OF_PERICENTER":132.5342,"MEAN_ANOMALY":83.2849,"EPHEMERIS_TYPE":0,"CLASSIFICATION_TYPE":"U","NORAD_CAT_ID":67961,"ELEMENT_SET_NO":999,"REV_AT_EPOCH":382,"BSTAR":-0.00087960668,"MEAN_MOTION_DOT":-0.00129887,"MEAN_MOTION_DDOT":0}]
